<?xml version="1.0" encoding="UTF-8"?>
<ndm xmlns:xsi="http://www.w3.org/2001/XMLSchema-instance" xsi:noNamespaceSchemaLocation="https://sanaregistry.org/r/ndmxml_unqualified/ndmxml-2.0.0-master-2.0.xsd">
<omm id="CCSDS_OMM_VERS" version="2.0">
<header><CREATION_DATE/><ORIGINATOR/></header><body><segment><metadata><OBJECT_NAME>ORBCOMM FM20 [+]</OBJECT_NAME><OBJECT_ID>1998-046D</OBJECT_ID><CENTER_NAME>EARTH</CENTER_NAME><REF_FRAME>TEME</REF_FRAME><TIME_SYSTEM>UTC</TIME_SYSTEM><MEAN_ELEMENT_THEORY>SGP4</MEAN_ELEMENT_THEORY></metadata><data><meanElements><EPOCH>2024-04-02T17:17:54.942720</EPOCH><MEAN_MOTION>14.35041565</MEAN_MOTION><ECCENTRICITY>.0002111</ECCENTRICITY><INCLINATION>44.9940</INCLINATION><RA_OF_ASC_NODE>103.6835</RA_OF_ASC_NODE><ARG_OF_PERICENTER>274.4841</ARG_OF_PERICENTER><MEAN_ANOMALY>85.5765</MEAN_ANOMALY></meanElements><tleParameters><EPHEMERIS_TYPE>0</EPHEMERIS_TYPE><CLASSIFICATION_TYPE>U</CLASSIFICATION_TYPE><NORAD_CAT_ID>25416</NORAD_CAT_ID><ELEMENT_SET_NO>999</ELEMENT_SET_NO><REV_AT_EPOCH>34094</REV_AT_EPOCH><BSTAR>.46009E-3</BSTAR><MEAN_MOTION_DOT>.1182E-4</MEAN_MOTION_DOT><MEAN_MOTION_DDOT>0</MEAN_MOTION_DDOT></tleParameters></data></segment></body></omm>
<omm id="CCSDS_OMM_VERS" version="2.0">
<header><CREATION_DATE/><ORIGINATOR/></header><body><segment><metadata><OBJECT_NAME>ORBCOMM FM16 [-]</OBJECT_NAME><OBJECT_ID>1998-046E</OBJECT_ID><CENTER_NAME>EARTH</CENTER_NAME><REF_FRAME>TEME</REF_FRAME><TIME_SYSTEM>UTC</TIME_SYSTEM><MEAN_ELEMENT_THEORY>SGP4</MEAN_ELEMENT_THEORY></metadata><data><meanElements><EPOCH>2024-04-02T21:54:54.407808</EPOCH><MEAN_MOTION>14.35961002</MEAN_MOTION><ECCENTRICITY>.0005502</ECCENTRICITY><INCLINATION>44.9938</INCLINATION><RA_OF_ASC_NODE>98.8189</RA_OF_ASC_NODE><ARG_OF_PERICENTER>259.5030</ARG_OF_PERICENTER><MEAN_ANOMALY>100.5197</MEAN_ANOMALY></meanElements><tleParameters><EPHEMERIS_TYPE>0</EPHEMERIS_TYPE><CLASSIFICATION_TYPE>U</CLASSIFICATION_TYPE><NORAD_CAT_ID>25417</NORAD_CAT_ID><ELEMENT_SET_NO>999</ELEMENT_SET_NO><REV_AT_EPOCH>34090</REV_AT_EPOCH><BSTAR>.63019E-3</BSTAR><MEAN_MOTION_DOT>.1705E-4</MEAN_MOTION_DOT><MEAN_MOTION_DDOT>0</MEAN_MOTION_DDOT></tleParameters></data></segment></body></omm>
<omm id="CCSDS_OMM_VERS" version="2.0">
<header><CREATION_DATE/><ORIGINATOR/></header><body><segment><metadata><OBJECT_NAME>ORBCOMM FM15 [-]</OBJECT_NAME><OBJECT_ID>1998-046F</OBJECT_ID><CENTER_NAME>EARTH</CENTER_NAME><REF_FRAME>TEME</REF_FRAME><TIME_SYSTEM>UTC</TIME_SYSTEM><MEAN_ELEMENT_THEORY>SGP4</MEAN_ELEMENT_THEORY></metadata><data><meanElements><EPOCH>2024-04-03T01:42:48.122784</EPOCH><MEAN_MOTION>14.35695726</MEAN_MOTION><ECCENTRICITY>.0005152</ECCENTRICITY><INCLINATION>44.9970</INCLINATION><RA_OF_ASC_NODE>102.0438</RA_OF_ASC_NODE><ARG_OF_PERICENTER>262.1721</ARG_OF_PERICENTER><MEAN_ANOMALY>97.8542</MEAN_ANOMALY></meanElements><tleParameters><EPHEMERIS_TYPE>0</EPHEMERIS_TYPE><CLASSIFICATION_TYPE>U</CLASSIFICATION_TYPE><NORAD_CAT_ID>25418</NORAD_CAT_ID><ELEMENT_SET_NO>999</ELEMENT_SET_NO><REV_AT_EPOCH>34110</REV_AT_EPOCH><BSTAR>.56993E-3</BSTAR><MEAN_MOTION_DOT>.152E-4</MEAN_MOTION_DOT><MEAN_MOTION_DDOT>0</MEAN_MOTION_DDOT></tleParameters></data></segment></body></omm>
<omm id="CCSDS_OMM_VERS" version="2.0">
<header><CREATION_DATE/><ORIGINATOR/></header><body><segment><metadata><OBJECT_NAME>ORBCOMM FM14 [-]</OBJECT_NAME><OBJECT_ID>1998-046G</OBJECT_ID><CENTER_NAME>EARTH</CENTER_NAME><REF_FRAME>TEME</REF_FRAME><TIME_SYSTEM>UTC</TIME_SYSTEM><MEAN_ELEMENT_THEORY>SGP4</MEAN_ELEMENT_THEORY></metadata><data><meanElements><EPOCH>2024-04-02T23:28:42.826080</EPOCH><MEAN_MOTION>14.35847848</MEAN_MOTION><ECCENTRICITY>.0003901</ECCENTRICITY><INCLINATION>44.9954</INCLINATION><RA_OF_ASC_NODE>101.6473</RA_OF_ASC_NODE><ARG_OF_PERICENTER>259.3412</ARG_OF_PERICENTER><MEAN_ANOMALY>189.5890</MEAN_ANOMALY></meanElements><tleParameters><EPHEMERIS_TYPE>0</EPHEMERIS_TYPE><CLASSIFICATION_TYPE>U</CLASSIFICATION_TYPE><NORAD_CAT_ID>25419</NORAD_CAT_ID><ELEMENT_SET_NO>999</ELEMENT_SET_NO><REV_AT_EPOCH>34110</REV_AT_EPOCH><BSTAR>.60554E-3</BSTAR><MEAN_MOTION_DOT>.1629E-4</MEAN_MOTION_DOT><MEAN_MOTION_DDOT>0</MEAN_MOTION_DDOT></tleParameters></data></segment></body></omm>
<omm id="CCSDS_OMM_VERS" version="2.0">
<header><CREATION_DATE/><ORIGINATOR/></header><body><segment><metadata><OBJECT_NAME>ORBCOMM FM13 [+]</OBJECT_NAME><OBJECT_ID>1998-046H</OBJECT_ID><CENTER_NAME>EARTH</CENTER_NAME><REF_FRAME>TEME</REF_FRAME><TIME_SYSTEM>UTC</TIME_SYSTEM><MEAN_ELEMENT_THEORY>SGP4</MEAN_ELEMENT_THEORY></metadata><data><meanElements><EPOCH>2024-04-02T22:03:09.586944</EPOCH><MEAN_MOTION>14.35163586</MEAN_MOTION><ECCENTRICITY>.0005891</ECCENTRICITY><INCLINATION>44.9972</INCLINATION><RA_OF_ASC_NODE>106.5939</RA_OF_ASC_NODE><ARG_OF_PERICENTER>243.6544</ARG_OF_PERICENTER><MEAN_ANOMALY>116.3698</MEAN_ANOMALY></meanElements><tleParameters><EPHEMERIS_TYPE>0</EPHEMERIS_TYPE><CLASSIFICATION_TYPE>U</CLASSIFICATION_TYPE><NORAD_CAT_ID>25420</NORAD_CAT_ID><ELEMENT_SET_NO>999</ELEMENT_SET_NO><REV_AT_EPOCH>33993</REV_AT_EPOCH><BSTAR>.52029E-3</BSTAR><MEAN_MOTION_DOT>.1359E-4</MEAN_MOTION_DOT><MEAN_MOTION_DDOT>0</MEAN_MOTION_DDOT></tleParameters></data></segment></body></omm>
<omm id="CCSDS_OMM_VERS" version="2.0">
<header><CREATION_DATE/><ORIGINATOR/></header><body><segment><metadata><OBJECT_NAME>ORBCOMM FM23 [-]</OBJECT_NAME><OBJECT_ID>1998-053C</OBJECT_ID><CENTER_NAME>EARTH</CENTER_NAME><REF_FRAME>TEME</REF_FRAME><TIME_SYSTEM>UTC</TIME_SYSTEM><MEAN_ELEMENT_THEORY>SGP4</MEAN_ELEMENT_THEORY></metadata><data><meanElements><EPOCH>2024-04-02T13:10:58.724256</EPOCH><MEAN_MOTION>14.35163223</MEAN_MOTION><ECCENTRICITY>.000287</ECCENTRICITY><INCLINATION>45.0071</INCLINATION><RA_OF_ASC_NODE>195.0454</RA_OF_ASC_NODE><ARG_OF_PERICENTER>202.3661</ARG_OF_PERICENTER><MEAN_ANOMALY>157.7061</MEAN_ANOMALY></meanElements><tleParameters><EPHEMERIS_TYPE>0</EPHEMERIS_TYPE><CLASSIFICATION_TYPE>U</CLASSIFICATION_TYPE><NORAD_CAT_ID>25477</NORAD_CAT_ID><ELEMENT_SET_NO>999</ELEMENT_SET_NO><REV_AT_EPOCH>33435</REV_AT_EPOCH><BSTAR>.56207E-3</BSTAR><MEAN_MOTION_DOT>.148E-4</MEAN_MOTION_DOT><MEAN_MOTION_DDOT>0</MEAN_MOTION_DDOT></tleParameters></data></segment></body></omm>

</ndm>
