ORBCOMM FM20 [+]        
1 25416U 98046D   24093.72077480  .00001182  00000+0  46009-3 0  9991
2 25416  44.9940 103.6835 0002111 274.4841  85.5765 14.35041565340941
ORBCOMM FM16 [-]        
1 25417U 98046E   24093.91312972  .00001705  00000+0  63019-3 0  9992
2 25417  44.9938  98.8189 0005502 259.5030 100.5197 14.35961002340907
ORBCOMM FM15 [-]        
1 25418U 98046F   24094.07139031  .00001520  00000+0  56993-3 0  9992
2 25418  44.9970 102.0438 0005152 262.1721  97.8542 14.35695726341109
ORBCOMM FM14 [-]        
1 25419U 98046G   24093.97827345  .00001629  00000+0  60554-3 0  9991
2 25419  44.9954 101.6473 0003901 259.3412 189.5890 14.35847848341100
ORBCOMM FM13 [+]        
1 25420U 98046H   24093.91886096  .00001359  00000+0  52029-3 0  9993
2 25420  44.9972 106.5939 0005891 243.6544 116.3698 14.35163586339937
ORBCOMM FM23 [-]        
1 25477U 98053C   24093.54929079  .00001480  00000+0  56207-3 0  9998
2 25477  45.0071 195.0454 0002870 202.3661 157.7061 14.35163223334354
